NORAD_CAT_ID,OBJECT_NAME,OBJECT_TYPE,EPOCH,MEAN_MOTION,ECCENTRICITY,INCLINATION,RA_OF_ASC_NODE,ARG_OF_PERICENTER,MEAN_ANOMALY,BSTAR,MEAN_MOTION_DOT,MEAN_MOTION_DDOT,TLE_LINE0,TLE_LINE1,TLE_LINE2,SEMIMAJOR_AXIS,PERIOD,APOGEE,PERIGEE,DECAYED
49131.0,STARLINK-3096,PAYLOAD,2022-07-20 13:41:59,14.98332395,0.0003153999999999,69.9977,3.1069,253.7162,106.365,8.1277e-06,4e-08,0.0,0 STARLINK-3096,1 49131U 21082B   22201.57082977  .00000004  00000-0  81277-5 0  9997,2 49131  69.9977   3.1069 0003154 253.7162 106.3650 14.98332395 48027,6950.185,96.107,574.243,569.8580000000002,0.0
49131.0,STARLINK-3096,PAYLOAD,2022-07-20 20:06:31,14.98336189,0.000314,69.9976,2.4336,252.9259,107.1556,4.4832e-05,4.42e-06,0.0,0 STARLINK-3096,1 49131U 21082B   22201.83786535  .00000442  00000-0  44832-4 0  9998,2 49131  69.9976   2.4336 0003140 252.9259 107.1556 14.98336189 48061,6950.174,96.107,574.221,569.856,0.0
49131.0,STARLINK-3096,PAYLOAD,2022-07-21 12:07:52,14.9832866,0.000305,69.9979,0.7502,253.2387,106.8438,-0.00011436,-1.457e-05,0.0,0 STARLINK-3096,1 49131U 21082B   22202.50547349 -.00001457  00000-0 -11436-3 0  9993,2 49131  69.9979   0.7502 0003050 253.2387 106.8438 14.98328660 48167,6950.196999999999,96.107,574.182,569.942,0.0
49131.0,STARLINK-3096,PAYLOAD,2022-07-21 20:08:33,14.98330029,0.0003074,69.9978,359.9081,253.5427,106.5394,-0.00011165,-1.425e-05,0.0,0 STARLINK-3096,1 49131U 21082B   22202.83927233 -.00001425  00000-0 -11165-3 0  9997,2 49131  69.9978 359.9081 0003074 253.5427 106.5394 14.98330029 48217,6950.193,96.107,574.194,569.9209999999998,0.0
49131.0,STARLINK-3096,PAYLOAD,2022-07-22 04:09:13,14.983280300000002,0.0003119,69.9978,359.0665,257.4747,102.6063,2.3879e-05,1.92e-06,0.0,0 STARLINK-3096,1 49131U 21082B   22203.17307053  .00000192  00000-0  23879-4 0  9991,2 49131  69.9978 359.0665 0003119 257.4747 102.6063 14.98328030 48268,6950.199000000001,96.107,574.232,569.896,0.0
49131.0,STARLINK-3096,PAYLOAD,2022-07-22 10:33:45,14.98334606,0.000321,69.9977,358.39300000000014,254.1566,105.9239,-2.4521e-05,-3.86e-06,0.0,0 STARLINK-3096,1 49131U 21082B   22203.44010734 -.00000386  00000-0 -24521-4 0  9990,2 49131  69.9977 358.3930 0003210 254.1566 105.9239 14.98334606 48301,6950.179,96.107,574.275,569.813,0.0
49131.0,STARLINK-3096,PAYLOAD,2022-07-22 20:10:33,14.98336664,0.0003194,69.9978,357.3829,254.2839,105.7967,4.4999e-06,-3.9e-07,0.0,0 STARLINK-3096,1 49131U 21082B   22203.84066392 -.00000039  00000-0  44999-5 0  9991,2 49131  69.9978 357.3829 0003194 254.2839 105.7967 14.98336664 48361,6950.172,96.107,574.257,569.817,0.0
49131.0,STARLINK-3096,PAYLOAD,2022-07-23 04:11:12,14.98345446,0.0003617,69.9978,356.5408,256.3242,103.7514,0.00017772,2.029e-05,0.0,0 STARLINK-3096,1 49131U 21082B   22204.17445153  .00002029  00000-0  17772-3 0  9991,2 49131  69.9978 356.5408 0003617 256.3242 103.7514 14.98345446 48416,6950.145,96.106,574.524,569.496,0.0
49131.0,STARLINK-3096,PAYLOAD,2022-07-23 12:11:54,14.98324109,0.0003201,69.998,355.6995,254.2718,105.8088,3.644e-05,3.42e-06,0.0,0 STARLINK-3096,1 49131U 21082B   22204.50827000  .00000342  00000-0  36440-4 0  9993,2 49131  69.9980 355.6995 0003201 254.2718 105.8088 14.98324109 48461,6950.2109999999975,96.107,574.3009999999998,569.851,0.0
49131.0,STARLINK-3096,PAYLOAD,2022-07-23 15:24:10,14.98323845,0.0003202,69.998,355.3628,254.2538,105.8268,3.1276e-05,2.8e-06,0.0,0 STARLINK-3096,1 49131U 21082B   22204.64179068  .00000280  00000-0  31276-4 0  9995,2 49131  69.9980 355.3628 0003202 254.2538 105.8268 14.98323845 48480,6950.212,96.107,574.302,569.851,0.0
49131.0,STARLINK-3096,PAYLOAD,2022-07-23 20:12:34,14.98324115,0.0003205,69.9976,354.8575,254.1785,105.9021,4.2383e-05,4.13e-06,0.0,0 STARLINK-3096,1 49131U 21082B   22204.84207093  .00000413  00000-0  42383-4 0  9996,2 49131  69.9976 354.8575 0003205 254.1785 105.9021 14.98324115 48519,6950.2109999999975,96.107,574.304,569.849,0.0
49131.0,STARLINK-3096,PAYLOAD,2022-07-24 13:50:03,14.98332089,0.00031,69.9983,353.0062,253.5224,106.5595,-1.9528e-05,-3.26e-06,0.0,0 STARLINK-3096,1 49131U 21082B   22205.57642790 -.00000326  00000-0 -19528-4 0  9994,2 49131  69.9983 353.0062 0003100 253.5224 106.5595 14.98332089 48628,6950.186,96.107,574.206,569.8969999999998,0.0
49131.0,STARLINK-3096,PAYLOAD,2022-07-24 20:14:35,14.98333057,0.0003043,69.9985,352.3332,252.5943,107.4884,-1.0473e-05,-2.18e-06,0.0,0 STARLINK-3096,1 49131U 21082B   22205.84346659 -.00000218  00000-0 -10473-4 0  9999,2 49131  69.9985 352.3332 0003043 252.5943 107.4884 14.98333057 48666,6950.183000000001,96.107,574.163,569.933,0.0
49131.0,STARLINK-3096,PAYLOAD,2022-07-25 09:03:40,14.98319903,0.0003013999999999,69.9985,350.9864,253.4477,106.6351,-2.3801e-05,-3.77e-06,0.0,0 STARLINK-3096,1 49131U 21082B   22206.37755523 -.00000377  00000-0 -23801-4 0  9997,2 49131  69.9985 350.9864 0003014 253.4477 106.6351 14.98319903 48743,6950.224,96.108,574.184,569.994,0.0
49131.0,STARLINK-3096,PAYLOAD,2022-07-25 15:28:13,14.98319525,0.0003012,69.9985,350.31300000000016,253.4081,106.6748,-2.7032e-05,-4.15e-06,0.0,0 STARLINK-3096,1 49131U 21082B   22206.64459704 -.00000415  00000-0 -27032-4 0  9992,2 49131  69.9985 350.3130 0003012 253.4081 106.6748 14.98319525 48786,6950.225,96.108,574.184,569.997,0.0
49131.0,STARLINK-3096,PAYLOAD,2022-07-26 12:17:58,14.98326278,0.0003123,69.9985,348.1248,251.8349,108.247,-3.1582e-05,-4.7e-06,0.0,0 STARLINK-3096,1 49131U 21082B   22207.51247715 -.00000470  00000-0 -31582-4 0  9992,2 49131  69.9985 348.1248 0003123 251.8349 108.2470 14.98326278 48911,6950.204000000002,96.107,574.24,569.899,0.0
49131.0,STARLINK-3096,PAYLOAD,2022-07-26 18:42:30,14.98324615,0.0003139,69.9986,347.4514,251.94,108.1418,-4.5662e-05,-6.38e-06,0.0,0 STARLINK-3096,1 49131U 21082B   22207.77951947 -.00000638  00000-0 -45662-4 0  9999,2 49131  69.9986 347.4514 0003139 251.9400 108.1418 14.98324615 48954,6950.21,96.107,574.256,569.893,0.0
49131.0,STARLINK-3096,PAYLOAD,2022-07-27 12:19:59,14.98323618,0.0003247,69.9983,345.5992,253.3245,106.7558,0.0001036,1.143e-05,0.0,0 STARLINK-3096,1 49131U 21082B   22208.51387791  .00001143  00000-0  10360-3 0  9998,2 49131  69.9983 345.5992 0003247 253.3245 106.7558 14.98323618 49067,6950.2130000000025,96.107,574.3340000000002,569.821,0.0
49131.0,STARLINK-3096,PAYLOAD,2022-07-27 15:32:15,14.98325532,0.0003272,69.9983,345.2624,253.2897,106.7903,9.5279e-05,1.044e-05,0.0,0 STARLINK-3096,1 49131U 21082B   22208.64739737  .00001044  00000-0  95279-4 0  9996,2 49131  69.9983 345.2624 0003272 253.2897 106.7903 14.98325532 49089,6950.206999999999,96.107,574.346,569.798,0.0
49131.0,STARLINK-3096,PAYLOAD,2022-07-27 18:44:31,14.9832595,0.0003266999999999,69.9983,344.9257,253.2563,106.8238,9.6052e-05,1.053e-05,0.0,0 STARLINK-3096,1 49131U 21082B   22208.78091746  .00001053  00000-0  96052-4 0  9992,2 49131  69.9983 344.9257 0003267 253.2563 106.8238 14.98325950 49100,6950.205,96.107,574.341,569.8,0.0
49131.0,STARLINK-3096,PAYLOAD,2022-07-28 10:45:51,14.98332205,0.000327,69.9983,343.2423,253.236,106.8441,0.0001027,1.133e-05,0.0,0 STARLINK-3096,1 49131U 21082B   22209.44851347  .00001133  00000-0  10270-3 0  9993,2 49131  69.9983 343.2423 0003270 253.2360 106.8441 14.98332205 49204,6950.186,96.107,574.3240000000002,569.778,0.0
49131.0,STARLINK-3096,PAYLOAD,2022-07-28 17:10:23,14.98334271,0.000327,69.9984,342.569,253.3218,106.7582,9.656e-05,1.059e-05,0.0,0 STARLINK-3096,1 49131U 21082B   22209.71555176  .00001059  00000-0  96560-4 0  9998,2 49131  69.9984 342.5690 0003270 253.3218 106.7582 14.98334271 49240,6950.18,96.107,574.317,569.7719999999998,0.0
49131.0,STARLINK-3096,PAYLOAD,2022-07-28 18:46:31,14.98334744,0.0003268,69.9984,342.4007,253.3794,106.7006,9.9653e-05,1.096e-05,0.0,0 STARLINK-3096,1 49131U 21082B   22209.78231118  .00001096  00000-0  99653-4 0  9999,2 49131  69.9984 342.4007 0003268 253.3794 106.7006 14.98334744 49254,6950.178000000001,96.107,574.315,569.7719999999998,0.0
49131.0,STARLINK-3096,PAYLOAD,2022-07-29 07:35:36,14.98333254,0.0003248,69.9985,341.0542,253.5286,106.5516,1.8975e-05,1.33e-06,0.0,0 STARLINK-3096,1 49131U 21082B   22210.31639282  .00000133  00000-0  18975-4 0  9993,2 49131  69.9985 341.0542 0003248 253.5286 106.5516 14.98333254 49338,6950.183000000001,96.107,574.305,569.79,0.0
49131.0,STARLINK-3096,PAYLOAD,2022-07-29 18:48:33,14.98327804,0.0003253,69.9984,339.8755,253.0914,106.9889,-5.3772e-05,-7.35e-06,0.0,0 STARLINK-3096,1 49131U 21082B   22210.78371810 -.00000735  00000-0 -53772-4 0  9998,2 49131  69.9984 339.8755 0003253 253.0914 106.9889 14.98327804 49406,6950.2,96.107,574.326,569.804,0.0
49131.0,STARLINK-3096,PAYLOAD,2022-07-30 10:49:53,14.98331392,0.0003206,69.9984,338.1921,252.7147,107.3661,-6.524e-05,-8.71e-06,0.0,0 STARLINK-3096,1 49131U 21082B   22211.45131616 -.00000871  00000-0 -65240-4 0  9995,2 49131  69.9984 338.1921 0003206 252.7147 107.3661 14.98331392 49506,6950.189,96.107,574.2819999999998,569.825,0.0
49131.0,STARLINK-3096,PAYLOAD,2022-07-30 14:02:09,14.98331277,0.0003198,69.9985,337.8555,252.742,107.3389,-6.4117e-05,-8.58e-06,0.0,0 STARLINK-3096,1 49131U 21082B   22211.58483610 -.00000858  00000-0 -64117-4 0  9990,2 49131  69.9985 337.8555 0003198 252.7420 107.3389 14.98331277 49521,6950.189,96.107,574.2769999999998,569.831,0.0
49131.0,STARLINK-3096,PAYLOAD,2022-07-31 01:15:06,14.98332596,0.0003176,69.9985,336.6772,252.685,107.3962,-3.8277e-05,-5.5e-06,0.0,0 STARLINK-3096,1 49131U 21082B   22212.05215403 -.00000550  00000-0 -38277-4 0  9993,2 49131  69.9985 336.6772 0003176 252.6850 107.3962 14.98332596 49590,6950.185,96.107,574.257,569.842,0.0
49131.0,STARLINK-3096,PAYLOAD,2022-07-31 07:39:38,14.98327805,0.0003165,69.9984,336.0038,252.7993,107.2819,7.1858e-05,7.64e-06,0.0,0 STARLINK-3096,1 49131U 21082B   22212.31919324  .00000764  00000-0  71858-4 0  9992,2 49131  69.9984 336.0038 0003165 252.7993 107.2819 14.98327805 49637,6950.2,96.107,574.264,569.865,0.0
